DMSP 5D-3 F16 (USA 172) 
1 28054U 03048A   26063.61843098  .00000199  00000+0  12739-3 0  9993
2 28054  98.9997  86.7073 0008201  85.2534 351.1424 14.14459818154703
METEOSAT-9 (MSG-2)      
1 28912U 05049B   26063.09473407  .00000115  00000+0  00000+0 0  9996
2 28912   9.1243  55.1851 0001795 221.3911 325.1022  1.00277093  5941
DMSP 5D-3 F17 (USA 191) 
1 29522U 06050A   26063.58668888  .00000224  00000+0  13800-3 0  9997
2 29522  98.7412  72.2856 0010046   1.6071 358.5133 14.14961262997626
FENGYUN 3A              
1 32958U 08026A   26063.44887039  .00000166  00000+0  99150-4 0  9993
2 32958  98.6792   6.2962 0009799  71.7613 288.4629 14.19544519920546
GOES 14                 
1 35491U 09033A   26063.49975420  .00000117  00000+0  00000+0 0  9991
2 35491   1.4192  84.4208 0002260 298.7445 160.7749  1.00124429  5547
DMSP 5D-3 F18 (USA 210) 
1 35951U 09057A   26063.54987373  .00000340  00000+0  19920-3 0  9997
2 35951  98.8956  44.5967 0010838 182.8858 177.2254 14.14832058844791
EWS-G2 (GOES 15)        
1 36411U 10008A   26063.50649193  .00000010  00000+0  00000+0 0  9997
2 36411   1.0093  85.1478 0001906  19.7381 303.1848  1.00269460 58589
COMS 1                  
1 36744U 10032A   26063.60449630 -.00000353  00000+0  00000+0 0  9999
2 36744   4.5363  76.8665 0001197 283.4708 147.8028  1.00272313 50043
FENGYUN 3B              
1 37214U 10059A   26063.64646795  .00000097  00000+0  73738-4 0  9993
2 37214  98.9775 109.1520 0023001 121.7796 335.9092 14.14815546792649
SUOMI NPP               
1 37849U 11061A   26063.59784360  .00000128  00000+0  81858-4 0  9993
2 37849  98.7865   5.2411 0000409 280.5386  79.5744 14.19541848743605
METEOSAT-10 (MSG-3)     
1 38552U 12035B   26063.38239013 -.00000013  00000+0  00000+0 0  9993
2 38552   4.4237  61.4637 0002497 294.9203 303.6900  1.00277420 49808
METOP-B                 
1 38771U 12049A   26063.58805672  .00000166  00000+0  95807-4 0  9995
2 38771  98.6652 117.1081 0001208 294.0201  66.0850 14.21442767698402
INSAT-3D                
1 39216U 13038B   26063.58794773 -.00000349  00000+0  00000+0 0  9998
2 39216   1.6560  83.9118 0001758 242.6222 176.9436  1.00273372 46036
FENGYUN 3C              
1 39260U 13052A   26063.65792162  .00000149  00000+0  96999-4 0  9995
2 39260  98.4883  42.3895 0014064 328.4024  31.6305 14.15727052643770
METEOR-M 2              
1 40069U 14037A   26063.61516723  .00000122  00000+0  74841-4 0  9994
2 40069  98.5014  43.1132 0005678 352.8889   7.2207 14.21426112604463
HIMAWARI-8              
1 40267U 14060A   26063.58768699 -.00000287  00000+0  00000+0 0  9991
2 40267   0.0312 247.5940 0000766  82.9448 184.0089  1.00271913 41719
FENGYUN 2G              
1 40367U 14090A   26063.51997462 -.00000311  00000+0  00000+0 0  9998
2 40367   5.3743  74.0854 0001863 152.9569 222.0917  1.00274479 40952
