[{"OBJECT_NAME":"DMSP 5D-3 F16 (USA 172)","OBJECT_ID":"2003-048A","EPOCH":"2026-03-04T14:50:32.436672","MEAN_MOTION":14.14459818,"ECCENTRICITY":0.00082017,"INCLINATION":98.9997,"RA_OF_ASC_NODE":86.7073,"ARG_OF_PERICENTER":85.2534,"MEAN_ANOMALY":351.1424,"EPHEMERIS_TYPE":0,"CLASSIFICATION_TYPE":"U","NORAD_CAT_ID":28054,"ELEMENT_SET_NO":999,"REV_AT_EPOCH":15470,"BSTAR":0.00012738918,"MEAN_MOTION_DOT":1.99e-6,"MEAN_MOTION_DDOT":0},{"OBJECT_NAME":"METEOSAT-9 (MSG-2)","OBJECT_ID":"2005-049B","EPOCH":"2026-03-04T02:16:25.023648","MEAN_MOTION":1.00277093,"ECCENTRICITY":0.00017958,"INCLINATION":9.1243,"RA_OF_ASC_NODE":55.1851,"ARG_OF_PERICENTER":221.3911,"MEAN_ANOMALY":325.1022,"EPHEMERIS_TYPE":0,"CLASSIFICATION_TYPE":"U","NORAD_CAT_ID":28912,"ELEMENT_SET_NO":999,"REV_AT_EPOCH":594,"BSTAR":0,"MEAN_MOTION_DOT":1.15e-6,"MEAN_MOTION_DDOT":0},{"OBJECT_NAME":"DMSP 5D-3 F17 (USA 191)","OBJECT_ID":"2006-050A","EPOCH":"2026-03-04T14:04:49.919232","MEAN_MOTION":14.14961262,"ECCENTRICITY":0.00100465,"INCLINATION":98.7412,"RA_OF_ASC_NODE":72.2856,"ARG_OF_PERICENTER":1.6071,"MEAN_ANOMALY":358.5133,"EPHEMERIS_TYPE":0,"CLASSIFICATION_TYPE":"U","NORAD_CAT_ID":29522,"ELEMENT_SET_NO":999,"REV_AT_EPOCH":99762,"BSTAR":0.00013799734,"MEAN_MOTION_DOT":2.24e-6,"MEAN_MOTION_DDOT":0},{"OBJECT_NAME":"FENGYUN 3A","OBJECT_ID":"2008-026A","EPOCH":"2026-03-04T10:46:22.401696","MEAN_MOTION":14.19544519,"ECCENTRICITY":0.00097998,"INCLINATION":98.6792,"RA_OF_ASC_NODE":6.2962,"ARG_OF_PERICENTER":71.7613,"MEAN_ANOMALY":288.4629,"EPHEMERIS_TYPE":0,"CLASSIFICATION_TYPE":"U","NORAD_CAT_ID":32958,"ELEMENT_SET_NO":999,"REV_AT_EPOCH":92054,"BSTAR":9.9149656e-5,"MEAN_MOTION_DOT":1.66e-6,"MEAN_MOTION_DDOT":0},{"OBJECT_NAME":"GOES 14","OBJECT_ID":"2009-033A","EPOCH":"2026-03-04T11:59:38.762880","MEAN_MOTION":1.00124429,"ECCENTRICITY":0.00022607,"INCLINATION":1.4192,"RA_OF_ASC_NODE":84.4208,"ARG_OF_PERICENTER":298.7445,"MEAN_ANOMALY":160.7749,"EPHEMERIS_TYPE":0,"CLASSIFICATION_TYPE":"U","NORAD_CAT_ID":35491,"ELEMENT_SET_NO":999,"REV_AT_EPOCH":554,"BSTAR":0,"MEAN_MOTION_DOT":1.17e-6,"MEAN_MOTION_DDOT":0},{"OBJECT_NAME":"DMSP 5D-3 F18 (USA 210)","OBJECT_ID":"2009-057A","EPOCH":"2026-03-04T13:11:49.090272","MEAN_MOTION":14.14832058,"ECCENTRICITY":0.00108384,"INCLINATION":98.8956,"RA_OF_ASC_NODE":44.5967,"ARG_OF_PERICENTER":182.8858,"MEAN_ANOMALY":177.2254,"EPHEMERIS_TYPE":0,"CLASSIFICATION_TYPE":"U","NORAD_CAT_ID":35951,"ELEMENT_SET_NO":999,"REV_AT_EPOCH":84479,"BSTAR":0.00019919771,"MEAN_MOTION_DOT":3.4e-6,"MEAN_MOTION_DDOT":0},{"OBJECT_NAME":"EWS-G2 (GOES 15)","OBJECT_ID":"2010-008A","EPOCH":"2026-03-04T12:09:20.902752","MEAN_MOTION":1.0026946,"ECCENTRICITY":0.00019067,"INCLINATION":1.0093,"RA_OF_ASC_NODE":85.1478,"ARG_OF_PERICENTER":19.7381,"MEAN_ANOMALY":303.1848,"EPHEMERIS_TYPE":0,"CLASSIFICATION_TYPE":"U","NORAD_CAT_ID":36411,"ELEMENT_SET_NO":999,"REV_AT_EPOCH":5858,"BSTAR":0,"MEAN_MOTION_DOT":1.0e-7,"MEAN_MOTION_DDOT":0},{"OBJECT_NAME":"COMS 1","OBJECT_ID":"2010-032A","EPOCH":"2026-03-04T14:30:28.480320","MEAN_MOTION":1.00272313,"ECCENTRICITY":0.00011973,"INCLINATION":4.5363,"RA_OF_ASC_NODE":76.8665,"ARG_OF_PERICENTER":283.4708,"MEAN_ANOMALY":147.8028,"EPHEMERIS_TYPE":0,"CLASSIFICATION_TYPE":"U","NORAD_CAT_ID":36744,"ELEMENT_SET_NO":999,"REV_AT_EPOCH":5004,"BSTAR":0,"MEAN_MOTION_DOT":-3.53e-6,"MEAN_MOTION_DDOT":0},{"OBJECT_NAME":"FENGYUN 3B","OBJECT_ID":"2010-059A","EPOCH":"2026-03-04T15:30:54.830880","MEAN_MOTION":14.14815546,"ECCENTRICITY":0.00230012,"INCLINATION":98.9775,"RA_OF_ASC_NODE":109.152,"ARG_OF_PERICENTER":121.7796,"MEAN_ANOMALY":335.9092,"EPHEMERIS_TYPE":0,"CLASSIFICATION_TYPE":"U","NORAD_CAT_ID":37214,"ELEMENT_SET_NO":999,"REV_AT_EPOCH":79264,"BSTAR":7.3738017e-5,"MEAN_MOTION_DOT":9.7e-7,"MEAN_MOTION_DDOT":0},{"OBJECT_NAME":"SUOMI NPP","OBJECT_ID":"2011-061A","EPOCH":"2026-03-04T14:20:53.687040","MEAN_MOTION":14.19541848,"ECCENTRICITY":4.099e-5,"INCLINATION":98.7865,"RA_OF_ASC_NODE":5.2411,"ARG_OF_PERICENTER":280.5386,"MEAN_ANOMALY":79.5744,"EPHEMERIS_TYPE":0,"CLASSIFICATION_TYPE":"U","NORAD_CAT_ID":37849,"ELEMENT_SET_NO":999,"REV_AT_EPOCH":74360,"BSTAR":8.185771e-5,"MEAN_MOTION_DOT":1.28e-6,"MEAN_MOTION_DDOT":0},{"OBJECT_NAME":"METEOSAT-10 (MSG-3)","OBJECT_ID":"2012-035B","EPOCH":"2026-03-04T09:10:38.507232","MEAN_MOTION":1.0027742,"ECCENTRICITY":0.00024971,"INCLINATION":4.4237,"RA_OF_ASC_NODE":61.4637,"ARG_OF_PERICENTER":294.9203,"MEAN_ANOMALY":303.69,"EPHEMERIS_TYPE":0,"CLASSIFICATION_TYPE":"U","NORAD_CAT_ID":38552,"ELEMENT_SET_NO":999,"REV_AT_EPOCH":4980,"BSTAR":0,"MEAN_MOTION_DOT":-1.3e-7,"MEAN_MOTION_DDOT":0},{"OBJECT_NAME":"METOP-B","OBJECT_ID":"2012-049A","EPOCH":"2026-03-04T14:06:48.100608","MEAN_MOTION":14.21442767,"ECCENTRICITY":0.00012087,"INCLINATION":98.6652,"RA_OF_ASC_NODE":117.1081,"ARG_OF_PERICENTER":294.0201,"MEAN_ANOMALY":66.085,"EPHEMERIS_TYPE":0,"CLASSIFICATION_TYPE":"U","NORAD_CAT_ID":38771,"ELEMENT_SET_NO":999,"REV_AT_EPOCH":69840,"BSTAR":9.5806725e-5,"MEAN_MOTION_DOT":1.66e-6,"MEAN_MOTION_DDOT":0},{"OBJECT_NAME":"INSAT-3D","OBJECT_ID":"2013-038B","EPOCH":"2026-03-04T14:06:38.683872","MEAN_MOTION":1.00273372,"ECCENTRICITY":0.0001758,"INCLINATION":1.656,"RA_OF_ASC_NODE":83.9118,"ARG_OF_PERICENTER":242.6222,"MEAN_ANOMALY":176.9436,"EPHEMERIS_TYPE":0,"CLASSIFICATION_TYPE":"U","NORAD_CAT_ID":39216,"ELEMENT_SET_NO":999,"REV_AT_EPOCH":4603,"BSTAR":0,"MEAN_MOTION_DOT":-3.49e-6,"MEAN_MOTION_DDOT":0},{"OBJECT_NAME":"FENGYUN 3C","OBJECT_ID":"2013-052A","EPOCH":"2026-03-04T15:47:24.427968","MEAN_MOTION":14.15727052,"ECCENTRICITY":0.00140643,"INCLINATION":98.4883,"RA_OF_ASC_NODE":42.3895,"ARG_OF_PERICENTER":328.4024,"MEAN_ANOMALY":31.6305,"EPHEMERIS_TYPE":0,"CLASSIFICATION_TYPE":"U","NORAD_CAT_ID":39260,"ELEMENT_SET_NO":999,"REV_AT_EPOCH":64377,"BSTAR":9.6999245e-5,"MEAN_MOTION_DOT":1.49e-6,"MEAN_MOTION_DDOT":0},{"OBJECT_NAME":"METEOR-M 2","OBJECT_ID":"2014-037A","EPOCH":"2026-03-04T14:45:50.448672","MEAN_MOTION":14.21426112,"ECCENTRICITY":0.00056789,"INCLINATION":98.5014,"RA_OF_ASC_NODE":43.1132,"ARG_OF_PERICENTER":352.8889,"MEAN_ANOMALY":7.2207,"EPHEMERIS_TYPE":0,"CLASSIFICATION_TYPE":"U","NORAD_CAT_ID":40069,"ELEMENT_SET_NO":999,"REV_AT_EPOCH":60446,"BSTAR":7.4840566e-5,"MEAN_MOTION_DOT":1.22e-6,"MEAN_MOTION_DDOT":0},{"OBJECT_NAME":"HIMAWARI-8","OBJECT_ID":"2014-060A","EPOCH":"2026-03-04T14:06:16.155936","MEAN_MOTION":1.00271913,"ECCENTRICITY":7.66e-5,"INCLINATION":0.0312,"RA_OF_ASC_NODE":247.594,"ARG_OF_PERICENTER":82.9448,"MEAN_ANOMALY":184.0089,"EPHEMERIS_TYPE":0,"CLASSIFICATION_TYPE":"U","NORAD_CAT_ID":40267,"ELEMENT_SET_NO":999,"REV_AT_EPOCH":4171,"BSTAR":0,"MEAN_MOTION_DOT":-2.87e-6,"MEAN_MOTION_DDOT":0},{"OBJECT_NAME":"FENGYUN 2G","OBJECT_ID":"2014-090A","EPOCH":"2026-03-04T12:28:45.807168","MEAN_MOTION":1.00274479,"ECCENTRICITY":0.00018634,"INCLINATION":5.3743,"RA_OF_ASC_NODE":74.0854,"ARG_OF_PERICENTER":152.9569,"MEAN_ANOMALY":222.0917,"EPHEMERIS_TYPE":0,"CLASSIFICATION_TYPE":"U","NORAD_CAT_ID":40367,"ELEMENT_SET_NO":999,"REV_AT_EPOCH":4095,"BSTAR":0,"MEAN_MOTION_DOT":-3.11e-6,"MEAN_MOTION_DDOT":0}]
